[{"OBJECT_NAME":"STARLINK-31320","OBJECT_ID":"2024-020L","EPOCH":"2026-03-09T23:10:09.930144","MEAN_MOTION":15.30201396,"ECCENTRICITY":0.00011007,"INCLINATION":53.1614,"RA_OF_ASC_NODE":321.1147,"ARG_OF_PERICENTER":86.7271,"MEAN_ANOMALY":273.3856,"EPHEMERIS_TYPE":0,"CLASSIFICATION_TYPE":"U","NORAD_CAT_ID":58886,"ELEMENT_SET_NO":999,"REV_AT_EPOCH":11811,"BSTAR":0.00026015303,"MEAN_MOTION_DOT":7.354e-5,"MEAN_MOTION_DDOT":0},{"OBJECT_NAME":"SCS-01 D","OBJECT_ID":"2025-100D","EPOCH":"2026-03-09T18:08:45.040704","MEAN_MOTION":15.31902149,"ECCENTRICITY":0.00063457,"INCLINATION":97.373,"RA_OF_ASC_NODE":145.4097,"ARG_OF_PERICENTER":266.2302,"MEAN_ANOMALY":93.8214,"EPHEMERIS_TYPE":0,"CLASSIFICATION_TYPE":"U","NORAD_CAT_ID":63985,"ELEMENT_SET_NO":999,"REV_AT_EPOCH":4562,"BSTAR":0.0010528181,"MEAN_MOTION_DOT":0.00032471,"MEAN_MOTION_DDOT":0}]
